GLOBALSTAR M094         
1 39074U 13005C   25076.79835194 -.00000091  00000+0  69908-4 0  9994
2 39074  51.9943 100.3675 0000625  89.3616 270.7323 12.62269184560831
GLOBALSTAR M078         
1 39076U 13005E   25076.78460106 -.00000094  00000+0  51830-4 0  9990
2 39076  51.9857 233.4840 0000818  29.6172 330.4741 12.62260266558373
GLOBALSTAR M095         
1 39077U 13005F   25076.89060148 -.00000096  00000+0  41198-4 0  9993
2 39077  51.9784 230.4059 0001003  68.0171 292.0802 12.62267833558249
GLOBALSTAR M087         
1 52888U 22064A   25076.84208500 -.00000090  00000+0  79122-4 0  9996
2 52888  51.9821  11.9574 0000626  62.2668 297.8262 12.62269412133503
